ATLAS CENTAUR 2         
1 00694U 63047A   25344.46114491  .00004516  00000+0  54486-3 0  9992
2 00694  30.3556 334.1858 0548979  14.0983 347.4295 14.11739925119009
THOR AGENA D R/B        
1 00733U 64002A   25344.48953374  .00000384  00000+0  15404-3 0  9997
2 00733  99.1218 347.9866 0033261 156.6761 203.5939 14.33957448225519
SL-3 R/B                
1 00877U 64053B   25344.04017083  .00000540  00000+0  12945-3 0  9993
2 00877  65.0768 234.0465 0073639 321.2453  38.3377 14.61272073253697
SL-8 R/B                
1 02802U 67045B   25344.50892855  .00000682  00000+0  19628-3 0  9998
2 02802  74.0096 154.6284 0064379 184.5387 175.5196 14.45533156 76133
SL-8 R/B                
1 03230U 68040B   25344.50968877  .00005926  00000+0  44599-3 0  9999
2 03230  74.0304 135.8106 0025332 337.7251  22.2834 15.02499630 76615
OAO 2                   
1 03597U 68110A   25344.51118663  .00000517  00000+0  14461-3 0  9990
2 03597  34.9945  43.1003 0005740 207.6987 152.3398 14.47242314  6173
ISIS 1                  
1 03669U 69009A   25344.49298528  .00000322  00000+0  23424-3 0  9997
2 03669  88.4485 165.0422 1706855 269.2387  71.3702 11.30352973338459
SERT 2                  
1 04327U 70009A   25344.46016854  .00000063  00000+0  14284-3 0  9994
2 04327  99.2646 287.4879 0005469  39.5390  68.4834 13.58717131767776
SL-3 R/B                
1 05118U 71028B   25344.48680181  .00038942  00000+0  58980-3 0  9995
2 05118  81.2375 161.6032 0019350 248.6300 111.2884 15.54252079974783
ASTEX 1                 
1 05560U 71089A   25344.42865183  .00000922  00000+0  23502-3 0  9993
2 05560  92.7136 122.8713 0016695  33.1798 327.0451 14.50638253849367
SL-8 R/B                
1 05730U 71119B   25344.45717858  .00018339  00000+0  95547-3 0  9993
2 05730  73.8890 342.2462 0559616 326.9710  29.7604 14.35644831642677
OAO 3 (COPERNICUS)      
1 06153U 72065A   25344.42061066  .00000715  00000+0  15144-3 0  9998
2 06153  35.0058  85.8764 0006240 154.9541 268.5638 14.59903346833148
