CCSDS_OMM_VERS = 2.0
CREATION_DATE  = 
ORIGINATOR     = 

OBJECT_NAME    = ATLAS CENTAUR 2
OBJECT_ID      = 1963-047A
CENTER_NAME    = EARTH
REF_FRAME      = TEME
TIME_SYSTEM    = UTC
MEAN_ELEMENT_THEORY = SGP/SGP4

EPOCH          = 2025-12-10T11:04:02.920224
MEAN_MOTION    = 14.11739925
ECCENTRICITY   = .0548979
INCLINATION    = 30.3556
RA_OF_ASC_NODE = 334.1858
ARG_OF_PERICENTER = 14.0983
MEAN_ANOMALY   = 347.4295

EPHEMERIS_TYPE = 0
CLASSIFICATION_TYPE = U
NORAD_CAT_ID   = 694
ELEMENT_SET_NO = 999
REV_AT_EPOCH   = 11900
BSTAR          = .54486E-3
MEAN_MOTION_DOT = .4516E-4
MEAN_MOTION_DDOT = 0

CCSDS_OMM_VERS = 2.0
CREATION_DATE  = 
ORIGINATOR     = 

OBJECT_NAME    = THOR AGENA D R/B
OBJECT_ID      = 1964-002A
CENTER_NAME    = EARTH
REF_FRAME      = TEME
TIME_SYSTEM    = UTC
MEAN_ELEMENT_THEORY = SGP/SGP4

EPOCH          = 2025-12-10T11:44:55.715136
MEAN_MOTION    = 14.33957448
ECCENTRICITY   = .0033261
INCLINATION    = 99.1218
RA_OF_ASC_NODE = 347.9866
ARG_OF_PERICENTER = 156.6761
MEAN_ANOMALY   = 203.5939

EPHEMERIS_TYPE = 0
CLASSIFICATION_TYPE = U
NORAD_CAT_ID   = 733
ELEMENT_SET_NO = 999
REV_AT_EPOCH   = 22551
BSTAR          = .15404E-3
MEAN_MOTION_DOT = .384E-5
MEAN_MOTION_DDOT = 0

CCSDS_OMM_VERS = 2.0
CREATION_DATE  = 
ORIGINATOR     = 

OBJECT_NAME    = SL-3 R/B
OBJECT_ID      = 1964-053B
CENTER_NAME    = EARTH
REF_FRAME      = TEME
TIME_SYSTEM    = UTC
MEAN_ELEMENT_THEORY = SGP/SGP4

EPOCH          = 2025-12-10T00:57:50.759712
MEAN_MOTION    = 14.61272073
ECCENTRICITY   = .00736399
INCLINATION    = 65.0768
RA_OF_ASC_NODE = 234.0465
ARG_OF_PERICENTER = 321.2453
MEAN_ANOMALY   = 38.3377

EPHEMERIS_TYPE = 0
CLASSIFICATION_TYPE = U
NORAD_CAT_ID   = 877
ELEMENT_SET_NO = 999
REV_AT_EPOCH   = 25369
BSTAR          = .12944851E-3
MEAN_MOTION_DOT = .54E-5
MEAN_MOTION_DDOT = 0

CCSDS_OMM_VERS = 2.0
CREATION_DATE  = 
ORIGINATOR     = 

OBJECT_NAME    = SL-8 R/B
OBJECT_ID      = 1967-045B
CENTER_NAME    = EARTH
REF_FRAME      = TEME
TIME_SYSTEM    = UTC
MEAN_ELEMENT_THEORY = SGP/SGP4

EPOCH          = 2025-12-10T12:12:51.426720
MEAN_MOTION    = 14.45533156
ECCENTRICITY   = .0064379
INCLINATION    = 74.0096
RA_OF_ASC_NODE = 154.6284
ARG_OF_PERICENTER = 184.5387
MEAN_ANOMALY   = 175.5196

EPHEMERIS_TYPE = 0
CLASSIFICATION_TYPE = U
NORAD_CAT_ID   = 2802
ELEMENT_SET_NO = 999
REV_AT_EPOCH   = 7613
BSTAR          = .19628E-3
MEAN_MOTION_DOT = .682E-5
MEAN_MOTION_DDOT = 0

CCSDS_OMM_VERS = 2.0
CREATION_DATE  = 
ORIGINATOR     = 

OBJECT_NAME    = SL-8 R/B
OBJECT_ID      = 1968-040B
CENTER_NAME    = EARTH
REF_FRAME      = TEME
TIME_SYSTEM    = UTC
MEAN_ELEMENT_THEORY = SGP/SGP4

EPOCH          = 2025-12-10T12:13:57.109728
MEAN_MOTION    = 15.02499630
ECCENTRICITY   = .0025332
INCLINATION    = 74.0304
RA_OF_ASC_NODE = 135.8106
ARG_OF_PERICENTER = 337.7251
MEAN_ANOMALY   = 22.2834

EPHEMERIS_TYPE = 0
CLASSIFICATION_TYPE = U
NORAD_CAT_ID   = 3230
ELEMENT_SET_NO = 999
REV_AT_EPOCH   = 7661
BSTAR          = .44599E-3
MEAN_MOTION_DOT = .5926E-4
MEAN_MOTION_DDOT = 0

CCSDS_OMM_VERS = 2.0
CREATION_DATE  = 
ORIGINATOR     = 

OBJECT_NAME    = OAO 2
OBJECT_ID      = 1968-110A
CENTER_NAME    = EARTH
REF_FRAME      = TEME
TIME_SYSTEM    = UTC
MEAN_ELEMENT_THEORY = SGP/SGP4

EPOCH          = 2025-12-10T12:16:06.524832
MEAN_MOTION    = 14.47242314
ECCENTRICITY   = .000574
INCLINATION    = 34.9945
RA_OF_ASC_NODE = 43.1003
ARG_OF_PERICENTER = 207.6987
MEAN_ANOMALY   = 152.3398

EPHEMERIS_TYPE = 0
CLASSIFICATION_TYPE = U
NORAD_CAT_ID   = 3597
ELEMENT_SET_NO = 999
REV_AT_EPOCH   = 617
BSTAR          = .14461E-3
MEAN_MOTION_DOT = .517E-5
MEAN_MOTION_DDOT = 0

CCSDS_OMM_VERS = 2.0
CREATION_DATE  = 
ORIGINATOR     = 

OBJECT_NAME    = ISIS 1
OBJECT_ID      = 1969-009A
CENTER_NAME    = EARTH
REF_FRAME      = TEME
TIME_SYSTEM    = UTC
MEAN_ELEMENT_THEORY = SGP/SGP4

EPOCH          = 2025-12-10T11:49:53.928192
MEAN_MOTION    = 11.30352973
ECCENTRICITY   = .1706855
INCLINATION    = 88.4485
RA_OF_ASC_NODE = 165.0422
ARG_OF_PERICENTER = 269.2387
MEAN_ANOMALY   = 71.3702

EPHEMERIS_TYPE = 0
CLASSIFICATION_TYPE = U
NORAD_CAT_ID   = 3669
ELEMENT_SET_NO = 999
REV_AT_EPOCH   = 33845
BSTAR          = .23424E-3
MEAN_MOTION_DOT = .322E-5
MEAN_MOTION_DDOT = 0

CCSDS_OMM_VERS = 2.0
CREATION_DATE  = 
ORIGINATOR     = 

OBJECT_NAME    = SERT 2
OBJECT_ID      = 1970-009A
CENTER_NAME    = EARTH
REF_FRAME      = TEME
TIME_SYSTEM    = UTC
MEAN_ELEMENT_THEORY = SGP/SGP4

EPOCH          = 2025-12-10T11:02:38.561856
MEAN_MOTION    = 13.58717131
ECCENTRICITY   = .0005469
INCLINATION    = 99.2646
RA_OF_ASC_NODE = 287.4879
ARG_OF_PERICENTER = 39.5390
MEAN_ANOMALY   = 68.4834

EPHEMERIS_TYPE = 0
CLASSIFICATION_TYPE = U
NORAD_CAT_ID   = 4327
ELEMENT_SET_NO = 999
REV_AT_EPOCH   = 76777
BSTAR          = .14284E-3
MEAN_MOTION_DOT = .63E-6
MEAN_MOTION_DDOT = 0

CCSDS_OMM_VERS = 2.0
CREATION_DATE  = 
ORIGINATOR     = 

OBJECT_NAME    = SL-3 R/B
OBJECT_ID      = 1971-028B
CENTER_NAME    = EARTH
REF_FRAME      = TEME
TIME_SYSTEM    = UTC
MEAN_ELEMENT_THEORY = SGP/SGP4

EPOCH          = 2025-12-10T11:40:59.676384
MEAN_MOTION    = 15.54252079
ECCENTRICITY   = .001935
INCLINATION    = 81.2375
RA_OF_ASC_NODE = 161.6032
ARG_OF_PERICENTER = 248.6300
MEAN_ANOMALY   = 111.2884

EPHEMERIS_TYPE = 0
CLASSIFICATION_TYPE = U
NORAD_CAT_ID   = 5118
ELEMENT_SET_NO = 999
REV_AT_EPOCH   = 97478
BSTAR          = .5898E-3
MEAN_MOTION_DOT = .38942E-3
MEAN_MOTION_DDOT = 0

CCSDS_OMM_VERS = 2.0
CREATION_DATE  = 
ORIGINATOR     = 

OBJECT_NAME    = ASTEX 1
OBJECT_ID      = 1971-089A
CENTER_NAME    = EARTH
REF_FRAME      = TEME
TIME_SYSTEM    = UTC
MEAN_ELEMENT_THEORY = SGP/SGP4

EPOCH          = 2025-12-10T10:17:15.518112
MEAN_MOTION    = 14.50638253
ECCENTRICITY   = .0016695
INCLINATION    = 92.7136
RA_OF_ASC_NODE = 122.8713
ARG_OF_PERICENTER = 33.1798
MEAN_ANOMALY   = 327.0451

EPHEMERIS_TYPE = 0
CLASSIFICATION_TYPE = U
NORAD_CAT_ID   = 5560
ELEMENT_SET_NO = 999
REV_AT_EPOCH   = 84936
BSTAR          = .23502E-3
MEAN_MOTION_DOT = .922E-5
MEAN_MOTION_DDOT = 0

CCSDS_OMM_VERS = 2.0
CREATION_DATE  = 
ORIGINATOR     = 

OBJECT_NAME    = SL-8 R/B
OBJECT_ID      = 1971-119B
CENTER_NAME    = EARTH
REF_FRAME      = TEME
TIME_SYSTEM    = UTC
MEAN_ELEMENT_THEORY = SGP/SGP4

EPOCH          = 2025-12-10T10:58:20.229312
MEAN_MOTION    = 14.35644831
ECCENTRICITY   = .0559616
INCLINATION    = 73.8890
RA_OF_ASC_NODE = 342.2462
ARG_OF_PERICENTER = 326.9710
MEAN_ANOMALY   = 29.7604

EPHEMERIS_TYPE = 0
CLASSIFICATION_TYPE = U
NORAD_CAT_ID   = 5730
ELEMENT_SET_NO = 999
REV_AT_EPOCH   = 64267
BSTAR          = .95547E-3
MEAN_MOTION_DOT = .18339E-3
MEAN_MOTION_DDOT = 0

CCSDS_OMM_VERS = 2.0
CREATION_DATE  = 
ORIGINATOR     = 

OBJECT_NAME    = OAO 3 (COPERNICUS)
OBJECT_ID      = 1972-065A
CENTER_NAME    = EARTH
REF_FRAME      = TEME
TIME_SYSTEM    = UTC
MEAN_ELEMENT_THEORY = SGP/SGP4

EPOCH          = 2025-12-10T10:05:40.761024
MEAN_MOTION    = 14.59903346
ECCENTRICITY   = .000624
INCLINATION    = 35.0058
RA_OF_ASC_NODE = 85.8764
ARG_OF_PERICENTER = 154.9541
MEAN_ANOMALY   = 268.5638

EPHEMERIS_TYPE = 0
CLASSIFICATION_TYPE = U
NORAD_CAT_ID   = 6153
ELEMENT_SET_NO = 999
REV_AT_EPOCH   = 83314
BSTAR          = .15144E-3
MEAN_MOTION_DOT = .715E-5
MEAN_MOTION_DDOT = 0

